STARLINK-36829          
1 67957U 26037AB  26074.68563678  .00282679  00000+0  12966-2 0  9999
2 67957  42.9994 161.5832 0001999 241.4530 118.6140 15.82099246  4209
STARLINK-36799          
1 67958U 26037AC  26074.93592655  .00455526  00000+0  20406-2 0  9996
2 67958  42.9986 160.0174 0001038 352.5777   7.5079 15.82155150  4243
STARLINK-36834          
1 67959U 26037AD  26074.93437907  .00585215  00000+0  25521-2 0  9997
2 67959  42.9988 160.0045 0002347 235.3783 124.6868 15.82401295  4243
STARLINK-36841          
1 67960U 26037AE  26074.93518215  .00519298  00000+0  23062-2 0  9997
2 67960  42.9985 160.0104 0002536  26.2253 333.8747 15.82179874  4242
STARLINK-36912          
1 67961U 26038A   26074.91668981  .00104558  00000+0  69499-3 0  9997
2 67961  97.2859  85.5283 0002062  91.6621  26.8708 15.75132970  4204
STARLINK-36881          
1 67962U 26038B   26074.91668981 -.00029205  00000+0 -19537-3 0  9993
2 67962  97.2860  85.5313 0001234  66.5770  57.9318 15.75217042  4203
STARLINK-36357          
1 67963U 26038C   26074.91668981 -.00748239  00000+0 -54057-2 0  9994
2 67963  97.2862  85.5355 0001682  72.4601  64.0176 15.75459202  4205
STARLINK-36349          
1 67964U 26038D   26074.91668981 -.00696667  00000+0 -50040-2 0  9990
2 67964  97.2862  85.5321 0001549  69.5429  58.9167 15.75454996  4203
STARLINK-36806          
1 67965U 26038E   26074.91668981 -.00025346  00000+0 -16945-3 0  9998
2 67965  97.2866  85.5377 0001346  79.3383  63.1726 15.75205895  4203
STARLINK-36820          
1 67966U 26038F   26074.91668981 -.00044660  00000+0 -29967-3 0  9997
2 67966  97.2865  85.5404 0001331 109.9100  38.5906 15.75224384  4205
STARLINK-36819          
1 67967U 26038G   26074.91668981 -.02223298  00000+0 -28233-1 0  9999
2 67967  97.2843  85.5253 0001735  62.8410  35.1711 15.62521518  4205
STARLINK-36812          
1 67968U 26038H   26074.91668981 -.00020989  00000+0 -14008-3 0  9997
2 67968  97.2870  85.5437 0001312  68.8089  91.6992 15.75208232  4206
STARLINK-36709          
1 67969U 26038J   26074.91668981 -.00069419  00000+0 -46744-3 0  9991
2 67969  97.2869  85.5498 0001592  59.8598 114.6347 15.75233053  4206
STARLINK-36319          
1 67970U 26038K   26074.91668981  .00017042  00000+0  11491-3 0  9997
2 67970  97.2870  85.5459 0001276 109.5400  58.9699 15.75186864  4174
STARLINK-36710          
1 67971U 26038L   26074.91668981 -.00029503  00000+0 -19731-3 0  9990
2 67971  97.2868  85.5542 0001169  82.3300 102.1635 15.75225419  4209
STARLINK-36894          
1 67972U 26038M   26074.91668981 -.00195838  00000+0 -13368-2 0  9995
2 67972  97.2872  85.5549 0001522  44.0340 146.4517 15.75285809  4203
