[{"OBJECT_NAME":"STARLINK-36829","OBJECT_ID":"2026-037AB","EPOCH":"2026-03-15T16:27:19.017792","MEAN_MOTION":15.82099246,"ECCENTRICITY":0.00019994,"INCLINATION":42.9994,"RA_OF_ASC_NODE":161.5832,"ARG_OF_PERICENTER":241.453,"MEAN_ANOMALY":118.614,"EPHEMERIS_TYPE":0,"CLASSIFICATION_TYPE":"U","NORAD_CAT_ID":67957,"ELEMENT_SET_NO":999,"REV_AT_EPOCH":420,"BSTAR":0.0012965636,"MEAN_MOTION_DOT":0.00282679,"MEAN_MOTION_DDOT":0},{"OBJECT_NAME":"STARLINK-36799","OBJECT_ID":"2026-037AC","EPOCH":"2026-03-15T22:27:44.053920","MEAN_MOTION":15.8215515,"ECCENTRICITY":0.00010383,"INCLINATION":42.9986,"RA_OF_ASC_NODE":160.0174,"ARG_OF_PERICENTER":352.5777,"MEAN_ANOMALY":7.5079,"EPHEMERIS_TYPE":0,"CLASSIFICATION_TYPE":"U","NORAD_CAT_ID":67958,"ELEMENT_SET_NO":999,"REV_AT_EPOCH":424,"BSTAR":0.0020406464,"MEAN_MOTION_DOT":0.00455526,"MEAN_MOTION_DDOT":0},{"OBJECT_NAME":"STARLINK-36834","OBJECT_ID":"2026-037AD","EPOCH":"2026-03-15T22:25:30.351648","MEAN_MOTION":15.82401295,"ECCENTRICITY":0.00023475,"INCLINATION":42.9988,"RA_OF_ASC_NODE":160.0045,"ARG_OF_PERICENTER":235.3783,"MEAN_ANOMALY":124.6868,"EPHEMERIS_TYPE":0,"CLASSIFICATION_TYPE":"U","NORAD_CAT_ID":67959,"ELEMENT_SET_NO":999,"REV_AT_EPOCH":424,"BSTAR":0.0025520815,"MEAN_MOTION_DOT":0.00585215,"MEAN_MOTION_DDOT":0},{"OBJECT_NAME":"STARLINK-36841","OBJECT_ID":"2026-037AE","EPOCH":"2026-03-15T22:26:39.737760","MEAN_MOTION":15.82179874,"ECCENTRICITY":0.00025366,"INCLINATION":42.9985,"RA_OF_ASC_NODE":160.0104,"ARG_OF_PERICENTER":26.2253,"MEAN_ANOMALY":333.8747,"EPHEMERIS_TYPE":0,"CLASSIFICATION_TYPE":"U","NORAD_CAT_ID":67960,"ELEMENT_SET_NO":999,"REV_AT_EPOCH":424,"BSTAR":0.0023061706,"MEAN_MOTION_DOT":0.00519298,"MEAN_MOTION_DDOT":0},{"OBJECT_NAME":"STARLINK-36912","OBJECT_ID":"2026-038A","EPOCH":"2026-03-15T22:00:01.999584","MEAN_MOTION":15.7513297,"ECCENTRICITY":0.00020626,"INCLINATION":97.2859,"RA_OF_ASC_NODE":85.5283,"ARG_OF_PERICENTER":91.6621,"MEAN_ANOMALY":26.8708,"EPHEMERIS_TYPE":0,"CLASSIFICATION_TYPE":"U","NORAD_CAT_ID":67961,"ELEMENT_SET_NO":999,"REV_AT_EPOCH":420,"BSTAR":0.00069499367,"MEAN_MOTION_DOT":0.00104558,"MEAN_MOTION_DDOT":0},{"OBJECT_NAME":"STARLINK-36881","OBJECT_ID":"2026-038B","EPOCH":"2026-03-15T22:00:01.999584","MEAN_MOTION":15.75217042,"ECCENTRICITY":0.00012347,"INCLINATION":97.286,"RA_OF_ASC_NODE":85.5313,"ARG_OF_PERICENTER":66.577,"MEAN_ANOMALY":57.9318,"EPHEMERIS_TYPE":0,"CLASSIFICATION_TYPE":"U","NORAD_CAT_ID":67962,"ELEMENT_SET_NO":999,"REV_AT_EPOCH":420,"BSTAR":-0.0001953729,"MEAN_MOTION_DOT":-0.00029205,"MEAN_MOTION_DDOT":0},{"OBJECT_NAME":"STARLINK-36357","OBJECT_ID":"2026-038C","EPOCH":"2026-03-15T22:00:01.999584","MEAN_MOTION":15.75459202,"ECCENTRICITY":0.00016821,"INCLINATION":97.2862,"RA_OF_ASC_NODE":85.5355,"ARG_OF_PERICENTER":72.4601,"MEAN_ANOMALY":64.0176,"EPHEMERIS_TYPE":0,"CLASSIFICATION_TYPE":"U","NORAD_CAT_ID":67963,"ELEMENT_SET_NO":999,"REV_AT_EPOCH":420,"BSTAR":-0.0054056648,"MEAN_MOTION_DOT":-0.00748239,"MEAN_MOTION_DDOT":0},{"OBJECT_NAME":"STARLINK-36349","OBJECT_ID":"2026-038D","EPOCH":"2026-03-15T22:00:01.999584","MEAN_MOTION":15.75454996,"ECCENTRICITY":0.00015495,"INCLINATION":97.2862,"RA_OF_ASC_NODE":85.5321,"ARG_OF_PERICENTER":69.5429,"MEAN_ANOMALY":58.9167,"EPHEMERIS_TYPE":0,"CLASSIFICATION_TYPE":"U","NORAD_CAT_ID":67964,"ELEMENT_SET_NO":999,"REV_AT_EPOCH":420,"BSTAR":-0.0050039785,"MEAN_MOTION_DOT":-0.00696667,"MEAN_MOTION_DDOT":0},{"OBJECT_NAME":"STARLINK-36806","OBJECT_ID":"2026-038E","EPOCH":"2026-03-15T22:00:01.999584","MEAN_MOTION":15.75205895,"ECCENTRICITY":0.00013467,"INCLINATION":97.2866,"RA_OF_ASC_NODE":85.5377,"ARG_OF_PERICENTER":79.3383,"MEAN_ANOMALY":63.1726,"EPHEMERIS_TYPE":0,"CLASSIFICATION_TYPE":"U","NORAD_CAT_ID":67965,"ELEMENT_SET_NO":999,"REV_AT_EPOCH":420,"BSTAR":-0.00016944843,"MEAN_MOTION_DOT":-0.00025346,"MEAN_MOTION_DDOT":0},{"OBJECT_NAME":"STARLINK-36820","OBJECT_ID":"2026-038F","EPOCH":"2026-03-15T22:00:01.999584","MEAN_MOTION":15.75224384,"ECCENTRICITY":0.00013311,"INCLINATION":97.2865,"RA_OF_ASC_NODE":85.5404,"ARG_OF_PERICENTER":109.91,"MEAN_ANOMALY":38.5906,"EPHEMERIS_TYPE":0,"CLASSIFICATION_TYPE":"U","NORAD_CAT_ID":67966,"ELEMENT_SET_NO":999,"REV_AT_EPOCH":420,"BSTAR":-0.00029966594,"MEAN_MOTION_DOT":-0.0004466,"MEAN_MOTION_DDOT":0},{"OBJECT_NAME":"STARLINK-36819","OBJECT_ID":"2026-038G","EPOCH":"2026-03-15T22:00:01.999584","MEAN_MOTION":15.62521518,"ECCENTRICITY":0.00017352,"INCLINATION":97.2843,"RA_OF_ASC_NODE":85.5253,"ARG_OF_PERICENTER":62.841,"MEAN_ANOMALY":35.1711,"EPHEMERIS_TYPE":0,"CLASSIFICATION_TYPE":"U","NORAD_CAT_ID":67967,"ELEMENT_SET_NO":999,"REV_AT_EPOCH":420,"BSTAR":-0.028233024,"MEAN_MOTION_DOT":-0.02223298,"MEAN_MOTION_DDOT":0},{"OBJECT_NAME":"STARLINK-36812","OBJECT_ID":"2026-038H","EPOCH":"2026-03-15T22:00:01.999584","MEAN_MOTION":15.75208232,"ECCENTRICITY":0.00013124,"INCLINATION":97.287,"RA_OF_ASC_NODE":85.5437,"ARG_OF_PERICENTER":68.8089,"MEAN_ANOMALY":91.6992,"EPHEMERIS_TYPE":0,"CLASSIFICATION_TYPE":"U","NORAD_CAT_ID":67968,"ELEMENT_SET_NO":999,"REV_AT_EPOCH":420,"BSTAR":-0.00014008033,"MEAN_MOTION_DOT":-0.00020989,"MEAN_MOTION_DDOT":0},{"OBJECT_NAME":"STARLINK-36709","OBJECT_ID":"2026-038J","EPOCH":"2026-03-15T22:00:01.999584","MEAN_MOTION":15.75233053,"ECCENTRICITY":0.00015927,"INCLINATION":97.2869,"RA_OF_ASC_NODE":85.5498,"ARG_OF_PERICENTER":59.8598,"MEAN_ANOMALY":114.6347,"EPHEMERIS_TYPE":0,"CLASSIFICATION_TYPE":"U","NORAD_CAT_ID":67969,"ELEMENT_SET_NO":999,"REV_AT_EPOCH":420,"BSTAR":-0.00046743743,"MEAN_MOTION_DOT":-0.00069419,"MEAN_MOTION_DDOT":0},{"OBJECT_NAME":"STARLINK-36319","OBJECT_ID":"2026-038K","EPOCH":"2026-03-15T22:00:01.999584","MEAN_MOTION":15.75186864,"ECCENTRICITY":0.00012766,"INCLINATION":97.287,"RA_OF_ASC_NODE":85.5459,"ARG_OF_PERICENTER":109.54,"MEAN_ANOMALY":58.9699,"EPHEMERIS_TYPE":0,"CLASSIFICATION_TYPE":"U","NORAD_CAT_ID":67970,"ELEMENT_SET_NO":999,"REV_AT_EPOCH":417,"BSTAR":0.00011491267,"MEAN_MOTION_DOT":0.00017042,"MEAN_MOTION_DDOT":0},{"OBJECT_NAME":"STARLINK-36710","OBJECT_ID":"2026-038L","EPOCH":"2026-03-15T22:00:01.999584","MEAN_MOTION":15.75225419,"ECCENTRICITY":0.0001169,"INCLINATION":97.2868,"RA_OF_ASC_NODE":85.5542,"ARG_OF_PERICENTER":82.33,"MEAN_ANOMALY":102.1635,"EPHEMERIS_TYPE":0,"CLASSIFICATION_TYPE":"U","NORAD_CAT_ID":67971,"ELEMENT_SET_NO":999,"REV_AT_EPOCH":420,"BSTAR":-0.00019731001,"MEAN_MOTION_DOT":-0.00029503,"MEAN_MOTION_DDOT":0},{"OBJECT_NAME":"STARLINK-36894","OBJECT_ID":"2026-038M","EPOCH":"2026-03-15T22:00:01.999584","MEAN_MOTION":15.75285809,"ECCENTRICITY":0.00015222,"INCLINATION":97.2872,"RA_OF_ASC_NODE":85.5549,"ARG_OF_PERICENTER":44.034,"MEAN_ANOMALY":146.4517,"EPHEMERIS_TYPE":0,"CLASSIFICATION_TYPE":"U","NORAD_CAT_ID":67972,"ELEMENT_SET_NO":999,"REV_AT_EPOCH":420,"BSTAR":-0.0013367674,"MEAN_MOTION_DOT":-0.00195838,"MEAN_MOTION_DDOT":0}]
